[
    {
        "OBJECT_NAME": "NAVSTAR 1 (OPS 5111)",
        "OBJECT_ID": "1978-020A",
        "EPOCH": "2026-07-22T06:15:27.005472",
        "MEAN_MOTION": 1.98072247,
        "ECCENTRICITY": 0.00812315,
        "INCLINATION": 64.3751,
        "RA_OF_ASC_NODE": 51.2698,
        "ARG_OF_PERICENTER": 218.7111,
        "MEAN_ANOMALY": 140.765,
        "EPHEMERIS_TYPE": 0,
        "CLASSIFICATION_TYPE": "U",
        "NORAD_CAT_ID": 10684,
        "ELEMENT_SET_NO": 999,
        "REV_AT_EPOCH": 33713,
        "BSTAR": 0,
        "MEAN_MOTION_DOT": -5.5e-07,
        "MEAN_MOTION_DDOT": 0
    },
    {
        "OBJECT_NAME": "NAVSTAR 2 (OPS 5112)",
        "OBJECT_ID": "1978-047A",
        "EPOCH": "2026-07-20T22:14:28.317696",
        "MEAN_MOTION": 2.01626054,
        "ECCENTRICITY": 0.05466319,
        "INCLINATION": 62.6408,
        "RA_OF_ASC_NODE": 271.179,
        "ARG_OF_PERICENTER": 41.4644,
        "MEAN_ANOMALY": 338.7695,
        "EPHEMERIS_TYPE": 0,
        "CLASSIFICATION_TYPE": "U",
        "NORAD_CAT_ID": 10893,
        "ELEMENT_SET_NO": 999,
        "REV_AT_EPOCH": 35441,
        "BSTAR": 0,
        "MEAN_MOTION_DOT": -3.4e-07,
        "MEAN_MOTION_DDOT": 0
    },
    {
        "OBJECT_NAME": "NAVSTAR 3 (OPS 5113)",
        "OBJECT_ID": "1978-093A",
        "EPOCH": "2026-07-21T10:38:01.052736",
        "MEAN_MOTION": 1.93504708,
        "ECCENTRICITY": 0.01018701,
        "INCLINATION": 62.9017,
        "RA_OF_ASC_NODE": 299.1592,
        "ARG_OF_PERICENTER": 227.0849,
        "MEAN_ANOMALY": 131.9513,
        "EPHEMERIS_TYPE": 0,
        "CLASSIFICATION_TYPE": "U",
        "NORAD_CAT_ID": 11054,
        "ELEMENT_SET_NO": 999,
        "REV_AT_EPOCH": 34133,
        "BSTAR": 0,
        "MEAN_MOTION_DOT": -8.7e-07,
        "MEAN_MOTION_DDOT": 0
    },
    {
        "OBJECT_NAME": "NAVSTAR 4 (OPS 5114)",
        "OBJECT_ID": "1978-112A",
        "EPOCH": "2026-07-16T08:22:47.385120",
        "MEAN_MOTION": 1.92895495,
        "ECCENTRICITY": 0.0145822,
        "INCLINATION": 63.7251,
        "RA_OF_ASC_NODE": 71.2802,
        "ARG_OF_PERICENTER": 50.8108,
        "MEAN_ANOMALY": 129.0895,
        "EPHEMERIS_TYPE": 0,
        "CLASSIFICATION_TYPE": "U",
        "NORAD_CAT_ID": 11141,
        "ELEMENT_SET_NO": 999,
        "REV_AT_EPOCH": 22965,
        "BSTAR": 0,
        "MEAN_MOTION_DOT": -2.1e-07,
        "MEAN_MOTION_DDOT": 0
    },
    {
        "OBJECT_NAME": "NAVSTAR 5 (OPS 5117)",
        "OBJECT_ID": "1980-011A",
        "EPOCH": "2026-07-21T11:54:52.656192",
        "MEAN_MOTION": 2.00576079,
        "ECCENTRICITY": 0.04893016,
        "INCLINATION": 64.8096,
        "RA_OF_ASC_NODE": 47.564,
        "ARG_OF_PERICENTER": 204.7339,
        "MEAN_ANOMALY": 335.1274,
        "EPHEMERIS_TYPE": 0,
        "CLASSIFICATION_TYPE": "U",
        "NORAD_CAT_ID": 11690,
        "ELEMENT_SET_NO": 999,
        "REV_AT_EPOCH": 35441,
        "BSTAR": 0,
        "MEAN_MOTION_DOT": -5.8e-07,
        "MEAN_MOTION_DDOT": 0
    },
    {
        "OBJECT_NAME": "NAVSTAR 6 (OPS 5118)",
        "OBJECT_ID": "1980-032A",
        "EPOCH": "2026-07-20T14:56:17.075040",
        "MEAN_MOTION": 2.03455859,
        "ECCENTRICITY": 0.05529835,
        "INCLINATION": 61.8271,
        "RA_OF_ASC_NODE": 247.2895,
        "ARG_OF_PERICENTER": 51.5116,
        "MEAN_ANOMALY": 112.4332,
        "EPHEMERIS_TYPE": 0,
        "CLASSIFICATION_TYPE": "U",
        "NORAD_CAT_ID": 11783,
        "ELEMENT_SET_NO": 999,
        "REV_AT_EPOCH": 34243,
        "BSTAR": 0,
        "MEAN_MOTION_DOT": 1.8e-07,
        "MEAN_MOTION_DDOT": 0
    },
    {
        "OBJECT_NAME": "NAVSTAR 8 (OPS 9794)",
        "OBJECT_ID": "1983-072A",
        "EPOCH": "2026-07-17T12:12:26.095104",
        "MEAN_MOTION": 1.91719337,
        "ECCENTRICITY": 0.0223473,
        "INCLINATION": 63.4549,
        "RA_OF_ASC_NODE": 68.0108,
        "ARG_OF_PERICENTER": 56.8339,
        "MEAN_ANOMALY": 124.5333,
        "EPHEMERIS_TYPE": 0,
        "CLASSIFICATION_TYPE": "U",
        "NORAD_CAT_ID": 14189,
        "ELEMENT_SET_NO": 999,
        "REV_AT_EPOCH": 22730,
        "BSTAR": 0,
        "MEAN_MOTION_DOT": -3.6e-07,
        "MEAN_MOTION_DDOT": 0
    },
    {
        "OBJECT_NAME": "NAVSTAR 9 (USA 1)",
        "OBJECT_ID": "1984-059A",
        "EPOCH": "2026-07-20T09:52:31.993824",
        "MEAN_MOTION": 1.92302822,
        "ECCENTRICITY": 0.02443409,
        "INCLINATION": 63.6046,
        "RA_OF_ASC_NODE": 63.3406,
        "ARG_OF_PERICENTER": 54.222,
        "MEAN_ANOMALY": 130.4918,
        "EPHEMERIS_TYPE": 0,
        "CLASSIFICATION_TYPE": "U",
        "NORAD_CAT_ID": 15039,
        "ELEMENT_SET_NO": 999,
        "REV_AT_EPOCH": 29876,
        "BSTAR": 0,
        "MEAN_MOTION_DOT": -6.2e-07,
        "MEAN_MOTION_DDOT": 0
    },
    {
        "OBJECT_NAME": "NAVSTAR 10 (USA 5)",
        "OBJECT_ID": "1984-097A",
        "EPOCH": "2026-07-20T09:25:58.327680",
        "MEAN_MOTION": 1.92619094,
        "ECCENTRICITY": 0.01489305,
        "INCLINATION": 62.1132,
        "RA_OF_ASC_NODE": 289.9389,
        "ARG_OF_PERICENTER": 226.7846,
        "MEAN_ANOMALY": 129.613,
        "EPHEMERIS_TYPE": 0,
        "CLASSIFICATION_TYPE": "U",
        "NORAD_CAT_ID": 15271,
        "ELEMENT_SET_NO": 999,
        "REV_AT_EPOCH": 29695,
        "BSTAR": 0,
        "MEAN_MOTION_DOT": -7.3e-07,
        "MEAN_MOTION_DDOT": 0
    },
    {
        "OBJECT_NAME": "NAVSTAR 11 (USA 10)",
        "OBJECT_ID": "1985-093A",
        "EPOCH": "2026-07-21T06:44:31.831872",
        "MEAN_MOTION": 1.89368854,
        "ECCENTRICITY": 0.03442092,
        "INCLINATION": 63.5783,
        "RA_OF_ASC_NODE": 83.6747,
        "ARG_OF_PERICENTER": 56.1811,
        "MEAN_ANOMALY": 116.577,
        "EPHEMERIS_TYPE": 0,
        "CLASSIFICATION_TYPE": "U",
        "NORAD_CAT_ID": 16129,
        "ELEMENT_SET_NO": 999,
        "REV_AT_EPOCH": 22994,
        "BSTAR": 0,
        "MEAN_MOTION_DOT": -5.9e-07,
        "MEAN_MOTION_DDOT": 0
    },
    {
        "OBJECT_NAME": "NAVSTAR 13 (USA 35)",
        "OBJECT_ID": "1989-013A",
        "EPOCH": "2026-07-20T08:06:10.839744",
        "MEAN_MOTION": 1.85325516,
        "ECCENTRICITY": 0.00434422,
        "INCLINATION": 55.0487,
        "RA_OF_ASC_NODE": 93.5143,
        "ARG_OF_PERICENTER": 250.7169,
        "MEAN_ANOMALY": 299.8691,
        "EPHEMERIS_TYPE": 0,
        "CLASSIFICATION_TYPE": "U",
        "NORAD_CAT_ID": 19802,
        "ELEMENT_SET_NO": 999,
        "REV_AT_EPOCH": 25888,
        "BSTAR": 0,
        "MEAN_MOTION_DOT": -5.4e-07,
        "MEAN_MOTION_DDOT": 0
    },
    {
        "OBJECT_NAME": "NAVSTAR 14 (USA 38)",
        "OBJECT_ID": "1989-044A",
        "EPOCH": "2026-07-21T06:32:01.830624",
        "MEAN_MOTION": 1.88858368,
        "ECCENTRICITY": 0.00287494,
        "INCLINATION": 53.2892,
        "RA_OF_ASC_NODE": 238.4642,
        "ARG_OF_PERICENTER": 212.793,
        "MEAN_ANOMALY": 160.5953,
        "EPHEMERIS_TYPE": 0,
        "CLASSIFICATION_TYPE": "U",
        "NORAD_CAT_ID": 20061,
        "ELEMENT_SET_NO": 999,
        "REV_AT_EPOCH": 26243,
        "BSTAR": 0,
        "MEAN_MOTION_DOT": 3.4e-07,
        "MEAN_MOTION_DDOT": 0
    },
    {
        "OBJECT_NAME": "NAVSTAR 15 (USA 42)",
        "OBJECT_ID": "1989-064A",
        "EPOCH": "2026-07-21T15:24:54.498816",
        "MEAN_MOTION": 1.86088678,
        "ECCENTRICITY": 0.00119135,
        "INCLINATION": 54.9927,
        "RA_OF_ASC_NODE": 88.1959,
        "ARG_OF_PERICENTER": 324.064,
        "MEAN_ANOMALY": 260.544,
        "EPHEMERIS_TYPE": 0,
        "CLASSIFICATION_TYPE": "U",
        "NORAD_CAT_ID": 20185,
        "ELEMENT_SET_NO": 999,
        "REV_AT_EPOCH": 25684,
        "BSTAR": 0,
        "MEAN_MOTION_DOT": -7e-07,
        "MEAN_MOTION_DDOT": 0
    }
]
