{"epoch":1784799577,"count":18318,"objects":[{"id":"10684","name":"OPS 5111 (NAVSTAR 1)","type":"PAYLOAD","l1":"1 10684U 78020A   26203.26072923 -.00000055  00000-0  00000-0 0  9991","l2":"2 10684  64.3751  51.2698 0081231 218.7111 140.7650  1.98072247337134"},{"id":"10893","name":"OPS 5112 (NAVSTAR 2)","type":"PAYLOAD","l1":"1 10893U 78047A   26201.92671664 -.00000034  00000-0  00000-0 0  9997","l2":"2 10893  62.6408 271.1790 0546632  41.4644 338.7695  2.01626054354419"},{"id":"11054","name":"OPS 5113 (NAVSTAR 3)","type":"PAYLOAD","l1":"1 11054U 78093A   26202.44306774 -.00000087  00000-0  00000-0 0  9991","l2":"2 11054  62.9017 299.1592 0101870 227.0849 131.9513  1.93504708341338"},{"id":"11141","name":"OPS 5114 (NAVSTAR 4)","type":"PAYLOAD","l1":"1 11141U 78112A   26197.34915955 -.00000021  00000-0  00000+0 0  9996","l2":"2 11141  63.7251  71.2802 0145822  50.8108 129.0895  1.92895495229658"},{"id":"11690","name":"OPS 5117 (NAVSTAR 5)","type":"PAYLOAD","l1":"1 11690U 80011A   26202.49644278 -.00000058  00000-0  00000-0 0  9997","l2":"2 11690  64.8096  47.5640 0489302 204.7339 335.1274  2.00576079354410"},{"id":"11783","name":"OPS 5118 (NAVSTAR 6)","type":"PAYLOAD","l1":"1 11783U 80032A   26201.62241985  .00000018  00000-0  00000-0 0  9990","l2":"2 11783  61.8271 247.2895 0552984  51.5116 112.4332  2.03455859342439"},{"id":"14189","name":"OPS 9794 (NAVSTAR 8)","type":"PAYLOAD","l1":"1 14189U 83072A   26198.50863536 -.00000036  00000-0  00000+0 0  9994","l2":"2 14189  63.4549  68.0108 0223473  56.8339 124.5333  1.91719337227300"},{"id":"15039","name":"NAVSTAR 9 (USA 1)","type":"PAYLOAD","l1":"1 15039U 84059A   26201.41148141 -.00000062  00000-0  00000-0 0  9998","l2":"2 15039  63.6046  63.3406 0244341  54.2220 130.4918  1.92302822298767"},{"id":"15271","name":"NAVSTAR 10 (USA 5)","type":"PAYLOAD","l1":"1 15271U 84097A   26201.39303620 -.00000073  00000-0  00000-0 0  9992","l2":"2 15271  62.1132 289.9389 0148930 226.7846 129.6130  1.92619094296955"},{"id":"16129","name":"NAVSTAR 11 (USA 10)","type":"PAYLOAD","l1":"1 16129U 85093A   26202.28092398 -.00000059  00000-0  00000-0 0  9992","l2":"2 16129  63.5783  83.6747 0344209  56.1811 116.5770  1.89368854229947"},{"id":"19802","name":"NAVSTAR 13 (USA 35)","type":"PAYLOAD","l1":"1 19802U 89013A   26201.33762546 -.00000054  00000-0  00000-0 0  9998","l2":"2 19802  55.0487  93.5143 0043442 250.7169 299.8691  1.85325516258884"},{"id":"20061","name":"NAVSTAR 14 (USA 38)","type":"PAYLOAD","l1":"1 20061U 89044A   26202.27224341  .00000034  00000-0  00000-0 0  9998","l2":"2 20061  53.2892 238.4642 0028749 212.7930 160.5953  1.88858368262434"},{"id":"20185","name":"NAVSTAR 15 (USA 42)","type":"PAYLOAD","l1":"1 20185U 89064A   26202.64229744 -.00000070  00000-0  00000-0 0  9991","l2":"2 20185  54.9927  88.1959 0011914 324.0640 260.5440  1.86088678256847"}]}